TUBIN
1 48900U 21059X   25261.94038929  .00078644  00000-0  62480-3 0  9990
2 48900  97.6766  80.1593 0002951 212.2436 147.8646 15.71004407235899
LEDSAT
1 49069U 21073D   25261.77887164  .00242667  00000-0  11123-2 0  9992
2 49069  97.3769 348.7647 0001503  53.0750 307.0657 15.83045169227303
CUTE-LASP
1 49263U 21088D   25261.89976140  .00018669  00000-0  31392-3 0  9994
2 49263  97.4428 341.3833 0005949 207.1190 152.9753 15.51781857220118
JILIN-01 GAOFEN 2F
1 49338U 21097A   25261.89323757  .00005056  00000-0  36206-3 0  9992
2 49338  97.6401  24.8845 0020652  71.6759 288.6711 15.04680402215479
TEIKYOSAT-4 (OORURI)
1 49396U 21102B   25261.88657849  .00001721  00000-0  11543-3 0  9996
2 49396  97.4031 296.6411 0013640 139.8917 220.3321 15.08048360211819
Z-SAT
1 49399U 21102E   25261.95171890  .00003967  00000-0  21364-3 0  9990
2 49399  97.3721 300.4481 0019496 110.9631 249.3690 15.15223217212327
KOSEN-1
1 49402U 21102H   25261.59748683  .00006996  00000-0  31177-3 0  9993
2 49402  97.3621 304.3099 0017173  86.8800 273.4401 15.21603292212643
CAMSAT XW-3 (CAS-9)
1 50466U 21131B   25261.93908345  .00000468  00000-0  15962-3 0  9990
2 50466  98.5083 350.7904 0004245 177.1141 183.0073 14.40926806196043
SICH-2-1 (SICH-2-30)
1 51030U 22002AY  25261.89981322  .00332629  43519-4  10411-2 0  9993
2 51030  97.3182 344.1989 0005373 217.8313 142.2583 15.91439196205473
VZLUSAT-2
1 51085U 22002DF  25261.95509870  .00092747  00000-0  80055-3 0  9994
2 51085  97.3219 338.3875 0005541 180.4299 179.6959 15.68934194205101
INSPIRESAT-1
1 51657U 22013B   25261.68123843  .00029339  00000-0  50646-3 0  9993
2 51657  97.4793 294.7906 0003934 356.7975   3.3251 15.50961980200025
GOES-18
1 51850U 22021A   25261.69760145  .00000077  00000-0  00000-0 0  9994
2 51850   0.0428  10.8993 0000699 244.6435 216.4478  1.00271613  3878
MERIDIAN-10
1 52145U 22030A   25259.80187775  .00000193  00000-0  00000-0 0  9993
2 52145  62.6571 169.6432 6740273 273.2350  17.8856  2.00594976 25541
BRO-6
1 52422U 22047AE  25261.97853874  .00014367  00000-0  38467-3 0  9999
2 52422  97.3601 345.4047 0004097 345.7818  14.3311 15.38122181189313
CONNECTA-T1
1 52739U 22057H   25261.89480746  .00068762  00000-0  76687-3 0  9990
2 52739  97.6203  48.4648 0003872 305.2127  54.8768 15.62584096184893
PLATFORM-1
1 52770U 22057AQ  25261.92781276  .00660754  20796-3  11109-2 0  9994
2 52770  97.6036  56.0957 0009762 273.3279  86.6883 16.02744059185431
STEP CUBELAB-II
1 52897U 22065D   25261.95516211  .00001015  00000-0  20919-3 0  9993
2 52897  98.1857  42.4435 0009333 148.7953 211.3805 14.62565399171849
RANDEV
1 52898U 22065E   25261.95546226  .00001101  00000-0  22450-3 0  9991
2 52898  98.1846  42.6818 0008633 149.2336 210.9373 14.62892038171587
SNUGLITE-II
1 52899U 22065F   25261.89546657  .00001236  00000-0  24783-3 0  9993
2 52899  98.1833  42.9768 0008195 148.6681 211.5011 14.63451331171304
MIMAN
1 52900U 22065G   25261.88703312  .00000715  00000-0  15422-3 0  9999
2 52900  98.1882  41.4579 0008300 147.2905 212.8811 14.61306726170819
GREENCUBE (IO-117)
1 53106U 22080B   25051.21822557 -.00000003  00000-0  00000 0 0  9995
2 53106  70.1434 106.3440 0008542  48.0089 312.1297  6.42557744 61200
ROBUSTA 1F (MTCUBE-2)
1 53109U 22080E   25261.28745958 -.00000003  00000-0  00000-0 0  9998
2 53109  70.1544  32.7830 0008569 347.6842  12.3608  6.42583654 74594
BLUEWALKER-3
1 53807U 22111AL  25260.30328395  .00004498  00000-0  14515-3 0  9992
2 53807  53.2306 231.5485 0009180  58.5052 301.6848 15.34177555168250
ELEKTRO-L4
1 55506U 23016A   25261.54579900 -.00000079  00000-0  00000-0 0  9995
2 55506   0.0603 354.0258 0002239 225.2164 140.7401  1.00271050  9605
SHARJAHSAT-1
1 55104U 23001CZ  25261.98802796  .00015028  00000-0  41533-3 0  9991
2 55104  97.3612 323.6155 0007266  18.3833 341.7673 15.37109303150668
METEOR M2-3
1 57166U 23091A   25261.95356039  .00000007  00000-0  22032-4 0  9996
2 57166  98.6512 316.9134 0003092 227.2908 132.8011 14.24010473115918
STRATOSAT-TK1 (RS52S)
1 57167U 23091B   25261.93999400  .00060244  00000-0  11018-2 0  9999
2 57167  97.5416 329.2467 0005510 291.2782  68.7880 15.49151411123651
RESHUCUBE-2 (RS37S)
1 57168U 23091C   25261.92494618  .00007937  00000-0  37011-3 0  9992
2 57168  97.5465 318.5535 0012226 344.1791  15.9060 15.20077005122954
RASSVET 1-1
1 57169U 23091D   25261.92643142  .00007036  00000-0  34307-3 0  9996
2 57169  97.5523 318.3138 0010388 336.4311  23.6445 15.18592560122910
RASSVET 1-2
1 57170U 23091E   25261.92658812  .00006893  00000-0  33623-3 0  9998
2 57170  97.5528 318.3721 0009025 327.9494  32.1190 15.18592727122915
RASSVET 1-3
1 57171U 23091F   25261.92626002  .00007068  00000-0  34452-3 0  9991
2 57171  97.5525 318.3361 0011499 347.1065  12.9873 15.18590320122910
UMKA-1 (RS40S)
1 57172U 23091G   25261.93392235  .00005146  00000-0  26735-3 0  9991
2 57172  97.5485 316.8034 0013457 350.3776   9.7197 15.16468288122836
SATURN (RS43S)
1 57174U 23091J   25261.92040987  .00003225  00000-0  19547-3 0  9995
2 57174  97.5493 313.6949 0014086  10.0771 350.0738 15.11205686122627
CUBEBEL-2 (EU11S)
1 57175U 23091K   25261.94096630  .00009095  00000-0  41070-3 0  9991
2 57175  97.5483 318.6206 0011071 356.8324   3.2839 15.21151629122957
SITRO-AIS-5 (ANOKHIN)
1 57176U 23091L   25261.89674081  .00009701  00000-0  43217-3 0  9997
2 57176  97.5488 319.0703 0012545 342.9219  17.1593 15.21582143122978
ZORKIY-2M
1 57177U 23091M   25261.89226745  .00005326  00000-0  27943-3 0  9995
2 57177  97.5524 316.9503 0014046 346.1801  13.9045 15.16093353122829
CUBESX-HSE-3 (RS42S)
1 57178U 23091N   25261.92695213  .00010352  00000-0  44651-3 0  9990
2 57178  97.5516 320.0891 0011856 334.4123  25.6525 15.22674267123022
PHI-DEMO
1 57181U 23091R   25261.94235049  .00003475  00000-0  20594-3 0  9991
2 57181  97.5502 314.2750 0015781 359.8376   0.2847 15.11955247122665
MONITOR-3 (RS58S)
1 57180U 23091Q   25261.94006249  .00008670  00000-0  39596-3 0  9992
2 57180  97.5510 319.0869 0012666 338.0168  22.0522 15.20761758122961
NORBY-2
1 57179U 23091P   25261.91704157  .00003801  00000-0  21600-3 0  9998
2 57179  97.5531 315.4640 0015347 349.6335  10.4577 15.13412012122714
MONITOR-4 (RS57S)
1 57182U 23091S   25261.93302698  .00008793  00000-0  40088-3 0  9994
2 57182  97.5505 319.0387 0012691 338.6126  21.4578 15.20817667122965
MONITOR-2 (RS39S)
1 57184U 23091U   25261.93910474  .00004044  00000-0  21794-3 0  9991
2 57184  97.5512 316.9555 0011358 341.9109  18.1718 15.15315671122821
SVYATOBOR-1 (RS60S)
1 57187U 23091X   25261.92324357  .00008058  00000-0  37206-3 0  9996
2 57187  97.5515 319.7477 0009658 330.3095  29.7591 15.20440735123001
VIZARD-METEO (RS38S)
1 57189U 23091Z   25261.94019581  .00011882  00000-0  46804-3 0  9993
2 57189  97.5503 322.3946 0007725 319.2651  40.8009 15.25736302123188
NANOZOND-1 (RS49S)
1 57190U 23091AA  25261.93956019  .00034521  00000-0  82593-3 0  9990
2 57190  97.5451 328.3780 0004373 292.7307  67.3477 15.41380846123597
SITRO-AIS-6 (CHIRKIN)
1 57192U 23091AC  25261.89290958  .00006178  00000-0  27918-3 0  9997
2 57192  97.5486 319.0541 0012341 344.7978  15.2885 15.21252612122978
SITRO-AIS-8 (SHCHUKIN)
1 57193U 23091AD  25261.89553937  .00011172  00000-0  47552-3 0  9993
2 57193  97.5485 319.7966 0011788 341.7881  18.2931 15.23104084123023
SITRO-AIS-7 (SHEFFER)
1 57194U 23091AE  25261.92158594  .00005881  00000-0  26691-3 0  9999
2 57194  97.5487 319.0049 0012267 345.8480  14.2410 15.21128185122971
AVION KALUGA 650
1 57195U 23091AF  25261.87590669  .00004947  00000-0  25871-3 0  9998
2 57195  97.5524 317.6284 0010507 342.0358  18.0502 15.16283733122853
SITRO-AIS-10 (KATYS)
1 57199U 23091AK  25261.90536327  .00013583  00000-0  51691-3 0  9992
2 57199  97.5496 322.6940 0007363 323.0786  36.9945 15.26851990123207
SITRO-AIS-9 (BURDAEV)
1 57201U 23091AM  25261.93618774  .00012926  00000-0  49522-3 0  9996
2 57201  97.5494 322.6041 0007409 323.4459  36.6272 15.26642120123206
UTMN-2 (RS27S)
1 57203U 23091AP  25261.91004299  .00010689  00000-0  44804-3 0  9999
2 57203  97.5503 321.3560 0008351 322.7402  37.3254 15.23669465123114
SITRO-AIS-12 (FARTUSHNY)
1 57204U 23091AQ  25261.90479430  .00013138  00000-0  50020-3 0  9991
2 57204  97.5503 322.8987 0007166 315.7791  44.2874 15.26848314123211
ARCCUBE-1 (RS25S)
1 57205U 23091AR  25261.90937227  .00098080  00000-0  13042-2 0  9996
2 57205  97.5347 332.2997 0004179 260.4025  99.6758 15.57844413123878
AHMAT-1 (RS41S)
1 57206U 23091AS  25261.94527959  .00024281  00000-0  71805-3 0  9992
2 57206  97.5458 325.9979 0005431 308.0650  52.0102 15.34901403123443
SITRO-AIS-11 (SMIRENNY)
1 57208U 23091AU  25261.90895514  .00013817  00000-0  52208-3 0  9994
2 57208  97.5502 323.0228 0007077 315.9433  44.1241 15.27086506123227
KUZGTU-1 (RS47S)
1 57217U 23091AV  25261.93110938  .00009398  00000-0  41430-3 0  9991
2 57217  97.5490 319.5109 0012011 336.9020  23.1674 15.21958831123006
STRATOSAT-TK1-A (RS45S)
1 57322U 23091AW  25215.67503098  .07408063  25679-5  15142-2 0  9994
2 57322  97.5141 289.6996 0015448 266.2521  93.7007 16.30886971114947
STRATOSAT-TK1-E (RS52SE)
1 57323U 23091AX  25261.97633458  .00033617  00000-0  87739-3 0  9993
2 57323  97.5458 326.2077 0007374 312.9630  47.0995 15.38716179121334
STRATOSAT-TK1-B (RS52SB)
1 57324U 23091AY  25217.78564514  .05861195  25561-5  16793-2 0  9990
2 57324  97.5286 291.8408 0015433 269.9290  90.0234 16.27221432115268
STRATOSAT-TK1-D (RS52SD)
1 57326U 23091BA  25261.94774141  .00031937  00000-0  86460-3 0  9991
2 57326  97.5449 325.7362 0007510 316.0210  44.0436 15.37595660121144
STRATOSAT-TK1-V (RS52SV)
1 57327U 23091BB  25215.94783005  .07226389  25611-5  16265-2 0  9999
2 57327  97.5142 290.0171 0015369 258.0341 101.9230 16.29874339114825
VERONIKA
1 58261U 23174F   25226.74650706  .09886468  25425-5  70553-3 0  9996
2 58261  97.3922 318.3866 0015160 267.1721  92.7843 16.39664098 99160
